{
    "links": {
        "self": "http://www.neowsapp.com/rest/v1/neo/3555202?api_key=iIulBulltgU6a56xZRHN4H3l9WmuAYTsLGpBGhQ2"
    },
    "id": "3555202",
    "neo_reference_id": "3555202",
    "name": "(2011 AJ37)",
    "designation": "2011 AJ37",
    "nasa_jpl_url": "http://ssd.jpl.nasa.gov/sbdb.cgi?sstr=3555202",
    "absolute_magnitude_h": 25.8,
    "estimated_diameter": {
        "kilometers": {
            "estimated_diameter_min": 0.0183888672,
            "estimated_diameter_max": 0.0411187571
        },
        "meters": {
            "estimated_diameter_min": 18.388867207,
            "estimated_diameter_max": 41.1187571041
        },
        "miles": {
            "estimated_diameter_min": 0.0114263088,
            "estimated_diameter_max": 0.0255500032
        },
        "feet": {
            "estimated_diameter_min": 60.3309310875,
            "estimated_diameter_max": 134.9040630575
        }
    },
    "is_potentially_hazardous_asteroid": false,
    "close_approach_data": [
        {
            "close_approach_date": "2010-12-24",
            "close_approach_date_full": "2010-Dec-24 06:06",
            "epoch_date_close_approach": 1293170760000,
            "relative_velocity": {
                "kilometers_per_second": "4.5783160295",
                "kilometers_per_hour": "16481.9377061232",
                "miles_per_hour": "10241.2351263408"
            },
            "miss_distance": {
                "astronomical": "0.0835644448",
                "lunar": "32.5065690272",
                "kilometers": "12501062.949812576",
                "miles": "7767800.3193265088"
            },
            "orbiting_body": "Earth"
        }
    ],
    "orbital_data": {
        "orbit_id": "5",
        "orbit_determination_date": "2017-04-06 08:54:58",
        "first_observation_date": "2011-01-13",
        "last_observation_date": "2011-01-14",
        "data_arc_in_days": 1,
        "observations_used": 14,
        "orbit_uncertainty": "9",
        "minimum_orbit_intersection": ".0790414",
        "jupiter_tisserand_invariant": "4.729",
        "epoch_osculation": "2455575.5",
        "eccentricity": ".2480516776414289",
        "semi_major_axis": "1.392962995053605",
        "inclination": "7.543098365435119",
        "ascending_node_longitude": "287.3730219250361",
        "orbital_period": "600.4927879146003",
        "perihelion_distance": "1.047436187238129",
        "perihelion_argument": "149.8314770731598",
        "aphelion_distance": "1.738489802869081",
        "perihelion_time": "2455538.743061533098",
        "mean_anomaly": "22.03606456963242",
        "mean_motion": ".5995076164864744",
        "equinox": "J2000",
        "orbit_class": {
            "orbit_class_type": "AMO",
            "orbit_class_description": "Near-Earth asteroid orbits similar to that of 1221 Amor",
            "orbit_class_range": "1.017 AU < q (perihelion) < 1.3 AU"
        }
    },
    "is_sentry_object": false
}